{"type": "FeatureCollection", "features": [ {"type": "Feature", "properties": {"norad_id": 36551, "name": "COSMOS 2251 DEB", "group": "cosmos-2251-debris", "lat": 2.224892080551948, "lon": -12.543729024981594, "alt_km": 547.2501193228154, "timestamp": "2025-12-26T06:43:29.909252+00:00", "meta": {"OBJECT_NAME": "COSMOS 2251 DEB", "OBJECT_ID": "1993-036BDM", "EPOCH": "2025-12-23T08:25:21.362880", "MEAN_MOTION": 15.02881194, "ECCENTRICITY": 0.00509794, "INCLINATION": 73.8872, "RA_OF_ASC_NODE": 352.8451, "ARG_OF_PERICENTER": 300.1612, "MEAN_ANOMALY": 59.4529, "EPHEMERIS_TYPE": 0, "CLASSIFICATION_TYPE": "U", "NORAD_CAT_ID": 36551, "ELEMENT_SET_NO": 999, "REV_AT_EPOCH": 67091, "BSTAR": 0.0013038883, "MEAN_MOTION_DOT": 0.00017997, "MEAN_MOTION_DDOT": 0}, "tle": {"line1": "1 36551U 93036BDM 25357.35094170  .00017997  00000+0  13039-2 0  9992", "line2": "2 36551  73.8872 352.8451 0050979 300.1612  59.4529 15.02881194670914"}}, "geometry": {"type": "Point", "coordinates": [-12.543729024981594, 2.224892080551948]}}, {"type": "Feature", "properties": {"norad_id": 36557, "name": "COSMOS 2251 DEB", "group": "cosmos-2251-debris", "lat": -60.975974953846666, "lon": -49.26307918886113, "alt_km": 624.1639908021825, "timestamp": "2025-12-26T06:43:29.909262+00:00", "meta": {"OBJECT_NAME": "COSMOS 2251 DEB", "OBJECT_ID": "1993-036BDT", "EPOCH": "2025-12-25T13:22:56.127648", "MEAN_MOTION": 14.7886677, "ECCENTRICITY": 0.0022188, "INCLINATION": 73.9787, "RA_OF_ASC_NODE": 100.973, "ARG_OF_PERICENTER": 254.7091, "MEAN_ANOMALY": 105.1632, "EPHEMERIS_TYPE": 0, "CLASSIFICATION_TYPE": "U", "NORAD_CAT_ID": 36557, "ELEMENT_SET_NO": 999, "REV_AT_EPOCH": 34086, "BSTAR": 0.0038011, "MEAN_MOTION_DOT": 0.00028197, "MEAN_MOTION_DDOT": 0}, "tle": {"line1": "1 36557U 93036BDT 25359.55759407  .00028197  00000+0  38011-2 0  9994", "line2": "2 36557  73.9787 100.9730 0022188 254.7091 105.1632 14.78866770340861"}}, "geometry": {"type": "Point", "coordinates": [-49.26307918886113, -60.975974953846666]}}, {"type": "Feature", "properties": {"norad_id": 36558, "name": "COSMOS 2251 DEB", "group": "cosmos-2251-debris", "lat": 41.64769856883503, "lon": -65.8346267837386, "alt_km": 702.8649612274176, "timestamp": "2025-12-26T06:43:29.909273+00:00", "meta": {"OBJECT_NAME": "COSMOS 2251 DEB", "OBJECT_ID": "1993-036BDU", "EPOCH": "2025-12-25T15:15:12.808224", "MEAN_MOTION": 14.55453872, "ECCENTRICITY": 0.0012585, "INCLINATION": 74.0432, "RA_OF_ASC_NODE": 130.1267, "ARG_OF_PERICENTER": 219.2575, "MEAN_ANOMALY": 140.7676, "EPHEMERIS_TYPE": 0, "CLASSIFICATION_TYPE": "U", "NORAD_CAT_ID": 36558, "ELEMENT_SET_NO": 999, "REV_AT_EPOCH": 85456, "BSTAR": 0.0010262, "MEAN_MOTION_DOT": 4.441e-05, "MEAN_MOTION_DDOT": 0}, "tle": {"line1": "1 36558U 93036BDU 25359.63556491  .00004441  00000+0  10262-2 0  9996", "line2": "2 36558  74.0432 130.1267 0012585 219.2575 140.7676 14.55453872854564"}}, "geometry": {"type": "Point", "coordinates": [-65.8346267837386, 41.64769856883503]}}, {"type": "Feature", "properties": {"norad_id": 36559, "name": "COSMOS 2251 DEB", "group": "cosmos-2251-debris", "lat": -72.39073428353497, "lon": -76.99341103978573, "alt_km": 937.7270197790713, "timestamp": "2025-12-26T06:43:29.909293+00:00", "meta": {"OBJECT_NAME": "COSMOS 2251 DEB", "OBJECT_ID": "1993-036BDV", "EPOCH": "2025-12-25T22:30:17.877888", "MEAN_MOTION": 13.95341265, "ECCENTRICITY": 0.02626068, "INCLINATION": 74.131, "RA_OF_ASC_NODE": 347.2543, "ARG_OF_PERICENTER": 16.1375, "MEAN_ANOMALY": 344.792, "EPHEMERIS_TYPE": 0, "CLASSIFICATION_TYPE": "U", "NORAD_CAT_ID": 36559, "ELEMENT_SET_NO": 999, "REV_AT_EPOCH": 81278, "BSTAR": 0.0044341519, "MEAN_MOTION_DOT": 7.996e-05, "MEAN_MOTION_DDOT": 0}, "tle": {"line1": "1 36559U 93036BDV 25359.93770692  .00007996  00000+0  44342-2 0  9995", "line2": "2 36559  74.1310 347.2543 0262606  16.1375 344.7920 13.95341265812783"}}, "geometry": {"type": "Point", "coordinates": [-76.99341103978573, -72.39073428353497]}}, {"type": "Feature", "properties": {"norad_id": 36614, "name": "COSMOS 2251 DEB", "group": "cosmos-2251-debris", "lat": 32.25529444004893, "lon": 159.12982902552116, "alt_km": 700.4537406080326, "timestamp": "2025-12-26T06:43:29.909305+00:00", "meta": {"OBJECT_NAME": "COSMOS 2251 DEB", "OBJECT_ID": "1993-036BEC", "EPOCH": "2025-12-25T19:03:45.124128", "MEAN_MOTION": 14.60436705, "ECCENTRICITY": 0.00155454, "INCLINATION": 74.0219, "RA_OF_ASC_NODE": 149.6407, "ARG_OF_PERICENTER": 219.5991, "MEAN_ANOMALY": 140.404, "EPHEMERIS_TYPE": 0, "CLASSIFICATION_TYPE": "U", "NORAD_CAT_ID": 36614, "ELEMENT_SET_NO": 999, "REV_AT_EPOCH": 65803, "BSTAR": 0.0017518768, "MEAN_MOTION_DOT": 8.483e-05, "MEAN_MOTION_DDOT": 0}, "tle": {"line1": "1 36614U 93036BEC 25359.79427227  .00008483  00000+0  17519-2 0  9992", "line2": "2 36614  74.0219 149.6407 0015545 219.5991 140.4040 14.60436705658033"}}, "geometry": {"type": "Point", "coordinates": [159.12982902552116, 32.25529444004893]}}, {"type": "Feature", "properties": {"norad_id": 36622, "name": "COSMOS 2251 DEB", "group": "cosmos-2251-debris", "lat": 26.332633990268217, "lon": -69.22989962718064, "alt_km": 647.0503522995587, "timestamp": "2025-12-26T06:43:29.909315+00:00", "meta": {"OBJECT_NAME": "COSMOS 2251 DEB", "OBJECT_ID": "1993-036BEL", "EPOCH": "2025-12-24T01:59:12.142752", "MEAN_MOTION": 14.76299213, "ECCENTRICITY": 0.00689018, "INCLINATION": 74.0149, "RA_OF_ASC_NODE": 123.2338, "ARG_OF_PERICENTER": 256.4441, "MEAN_ANOMALY": 102.9052, "EPHEMERIS_TYPE": 0, "CLASSIFICATION_TYPE": "U", "NORAD_CAT_ID": 36622, "ELEMENT_SET_NO": 999, "REV_AT_EPOCH": 66917, "BSTAR": 0.00077654532, "MEAN_MOTION_DOT": 5.567e-05, "MEAN_MOTION_DDOT": 0}, "tle": {"line1": "1 36622U 93036BEL 25358.08277943  .00005567  00000+0  77655-3 0  9998", "line2": "2 36622  74.0149 123.2338 0068901 256.4441 102.9052 14.76299213669170"}}, "geometry": {"type": "Point", "coordinates": [-69.22989962718064, 26.332633990268217]}}, {"type": "Feature", "properties": {"norad_id": 36632, "name": "COSMOS 2251 DEB", "group": "cosmos-2251-debris", "lat": 32.34883240811995, "lon": 76.69912044639062, "alt_km": 761.7623526238121, "timestamp": "2025-12-26T06:43:29.909326+00:00", "meta": {"OBJECT_NAME": "COSMOS 2251 DEB", "OBJECT_ID": "1993-036BEW", "EPOCH": "2025-12-23T01:31:35.391648", "MEAN_MOTION": 14.43225962, "ECCENTRICITY": 0.00327185, "INCLINATION": 74.0013, "RA_OF_ASC_NODE": 273.1539, "ARG_OF_PERICENTER": 18.5865, "MEAN_ANOMALY": 341.6478, "EPHEMERIS_TYPE": 0, "CLASSIFICATION_TYPE": "U", "NORAD_CAT_ID": 36632, "ELEMENT_SET_NO": 999, "REV_AT_EPOCH": 65364, "BSTAR": 0.0008144408, "MEAN_MOTION_DOT": 2.732e-05, "MEAN_MOTION_DDOT": 0}, "tle": {"line1": "1 36632U 93036BEW 25357.06360407  .00002732  00000+0  81444-3 0  9996", "line2": "2 36632  74.0013 273.1539 0032718  18.5865 341.6478 14.43225962653646"}}, "geometry": {"type": "Point", "coordinates": [76.69912044639062, 32.34883240811995]}}, {"type": "Feature", "properties": {"norad_id": 37084, "name": "COSMOS 2251 DEB", "group": "cosmos-2251-debris", "lat": 73.31175949791493, "lon": -153.30748458354972, "alt_km": 594.8746838598272, "timestamp": "2025-12-26T06:43:29.909336+00:00", "meta": {"OBJECT_NAME": "COSMOS 2251 DEB", "OBJECT_ID": "1993-036BFE", "EPOCH": "2025-12-24T15:57:16.760448", "MEAN_MOTION": 15.01180609, "ECCENTRICITY": 0.00968203, "INCLINATION": 74.0273, "RA_OF_ASC_NODE": 137.155, "ARG_OF_PERICENTER": 214.9103, "MEAN_ANOMALY": 144.5712, "EPHEMERIS_TYPE": 0, "CLASSIFICATION_TYPE": "U", "NORAD_CAT_ID": 37084, "ELEMENT_SET_NO": 999, "REV_AT_EPOCH": 66446, "BSTAR": 0.00075136281, "MEAN_MOTION_DOT": 0.00010628, "MEAN_MOTION_DDOT": 0}, "tle": {"line1": "1 37084U 93036BFE 25358.66477732  .00010628  00000+0  75136-3 0  9999", "line2": "2 37084  74.0273 137.1550 0096820 214.9103 144.5712 15.01180609664465"}}, "geometry": {"type": "Point", "coordinates": [-153.30748458354972, 73.31175949791493]}}, {"type": "Feature", "properties": {"norad_id": 37085, "name": "COSMOS 2251 DEB", "group": "cosmos-2251-debris", "lat": 15.614233818364152, "lon": -168.87791677188886, "alt_km": 419.1243042098913, "timestamp": "2025-12-26T06:43:29.909346+00:00", "meta": {"OBJECT_NAME": "COSMOS 2251 DEB", "OBJECT_ID": "1993-036BFF", "EPOCH": "2025-12-13T09:00:31.802112", "MEAN_MOTION": 15.41681601, "ECCENTRICITY": 0.00213151, "INCLINATION": 73.9479, "RA_OF_ASC_NODE": 214.6598, "ARG_OF_PERICENTER": 52.8263, "MEAN_ANOMALY": 307.4887, "EPHEMERIS_TYPE": 0, "CLASSIFICATION_TYPE": "U", "NORAD_CAT_ID": 37085, "ELEMENT_SET_NO": 999, "REV_AT_EPOCH": 67147, "BSTAR": 0.0024657072, "MEAN_MOTION_DOT": 0.00106285, "MEAN_MOTION_DDOT": 0}, "tle": {"line1": "1 37085U 93036BFF 25347.37536808  .00106285  00000+0  24657-2 0  9992", "line2": "2 37085  73.9479 214.6598 0021315  52.8263 307.4887 15.41681601671472"}}, "geometry": {"type": "Point", "coordinates": [-168.87791677188886, 15.614233818364152]}}, {"type": "Feature", "properties": {"norad_id": 37089, "name": "COSMOS 2251 DEB", "group": "cosmos-2251-debris", "lat": 72.93001915562793, "lon": -128.57812876277524, "alt_km": 756.5056396747004, "timestamp": "2025-12-26T06:43:29.909356+00:00", "meta": {"OBJECT_NAME": "COSMOS 2251 DEB", "OBJECT_ID": "1993-036BFK", "EPOCH": "2025-12-21T15:34:23.731392", "MEAN_MOTION": 14.53121083, "ECCENTRICITY": 0.0134841, "INCLINATION": 74.0377, "RA_OF_ASC_NODE": 128.9285, "ARG_OF_PERICENTER": 227.2834, "MEAN_ANOMALY": 131.6914, "EPHEMERIS_TYPE": 0, "CLASSIFICATION_TYPE": "U", "NORAD_CAT_ID": 37089, "ELEMENT_SET_NO": 999, "REV_AT_EPOCH": 66239, "BSTAR": 0.0022471011, "MEAN_MOTION_DOT": 0.00010467, "MEAN_MOTION_DDOT": 0}, "tle": {"line1": "1 37089U 93036BFK 25355.64888578  .00010467  00000+0  22471-2 0  9997", "line2": "2 37089  74.0377 128.9285 0134841 227.2834 131.6914 14.53121083662390"}}, "geometry": {"type": "Point", "coordinates": [-128.57812876277524, 72.93001915562793]}}]}